ORBCOMM FM37            
1 33064U 08031E   25230.52842324  .00001270  00000+0  19426-3 0  9994
2 33064  48.4406  47.2221 0005655 279.9034 117.5711 14.79944219923284
ORBCOMM FM40            
1 33065U 08031F   25230.47924815  .00001779  00000+0  24735-3 0  9998
2 33065  48.4429  30.4386 0006730 292.7066 104.0206 14.82251111923409
VESSELSAT 1             
1 37840U 11058C   25230.59895149  .00000342  00000+0  41784-4 0  9995
2 37840  19.9624  76.2284 0013690 152.9499 207.1620 14.11363360715135
ORBCOMM FM109           
1 40086U 14040A   25230.33038811  .00000424  00000+0  12753-3 0  9996
2 40086  47.0031  82.7849 0002046 269.4263  90.6388 14.58250731590135
ORBCOMM FM107           
1 40087U 14040B   25230.28739853  .00000451  00000+0  13290-3 0  9992
2 40087  47.0050  83.9284 0001316 221.0095 139.0691 14.58324606590205
ORBCOMM FM106           
1 40088U 14040C   25230.51120163  .00000695  00000+0  14729-3 0  9995
2 40088  47.0594 259.9786 0017041 352.6041   7.4596 14.69558858592647
ORBCOMM FM111           
1 40089U 14040D   25230.05649718  .00002307  00000+0  27980-3 0  9992
2 40089  47.0011 103.9471 0029768 129.5427 230.8107 14.86583233599437
ORBCOMM FM104           
1 40090U 14040E   25230.41279524  .00000454  00000+0  13825-3 0  9992
2 40090  47.0049 117.6955 0015835 129.6842 230.5442 14.56717800589693
